TEVEL2-6                
1 63215U 25052F   26068.64958975  .00021046  00000+0  70909-3 0  9996
2 63215  97.4016 325.0381 0004769  95.6604 264.5181 15.30760889 54861
STARLINK-35846          
1 66367U 25254V   26068.70961338  .00041693  00000+0  14115-2 0  9991
2 66367  53.1604 232.0046 0001030 136.8276 223.2806 15.30210278 18981
